#dP2026  1 17  0  0  0.00000000     289 d+D   IGc20 FIT AIUB
## 2401 518400.00000000   300.00000000 61057 0.0000000000000
+  122   G01G02G03G04G05G06G07G08G09G10G11G12G13G14G15G16G17
+        G18G19G21G22G23G24G25G26G27G28G29G30G31G32R02R03R04
+        R05R06R07R08R09R11R12R14R15R16R17R18R19R20R21R22R24
+        R26R28E02E03E04E05E06E07E08E09E10E11E12E13E14E15E18
+        E19E21E23E25E26E27E29E30E31E33E34E36C06C07C08C09C10
+        C11C12C13C14C16C19C20C21C22C23C24C25C26C27C28C29C30
+        C32C33C34C35C36C37C38C39C40C41C42C43C44C45C47C48C49
+        J02J03J04  0  0  0  0  0  0  0  0  0  0  0  0  0  0
++         5  5  5  5  5  5  5  5  5  5  5  5  5  5  5  5  5
++         5  5  5  5  5  5  5  5  5  5  5  5  5  5  5  5  5
++         5  5  5  5  5  5  5  5  5  5  5  5  5  5  5  5  5
++         5  7  5  5  5  5  5  5  5  5  5  5  5  5  5  5  5
++         5  5  5  5  5  5  5  5  5  5  5  5  5  5  5  5  5
++         6  5  5  5  5  5  5  5  5  5  5  5  5  5  5  5  5
++         5  5  5  5  5  5  5  5  5  5  5  5  5  5  5  5  5
++         5  5  8  0  0  0  0  0  0  0  0  0  0  0  0  0  0
%c M  cc GPS ccc cccc cccc cccc cccc ccccc ccccc ccccc ccccc
%c cc cc ccc ccc cccc cccc cccc cccc ccccc ccccc ccccc ccccc
%f  1.2500000  1.025000000  0.00000000000  0.000000000000000
%f  0.0000000  0.000000000  0.00000000000  0.000000000000000
%i    0    0    0    0      0      0      0      0         0
%i    0    0    0    0      0      0      0      0         0
/* Center for Orbit Determination in Europe (CODE)                              
/* MGEX orbits and clocks for year-day 2026-0170                                
/* Middle day of a 3-day long-arc multi-GNSS solution                           
/* Systems considered: GPS/GLONASS/Galileo/BeiDou/QZSS                          
/* Product reference - DOI 10.48350/197028                                      
/* PCV:IGS20_2401 OL/AL:FES2014b NONE     YN ORB:CoN CLK:CoN                    
*  2026  1 17  2 10  0.00000000
PG01  16020.352862  14386.838768 -15592.969705    343.193681
PG02   5742.275934  14777.573177 -20980.208562     18.255796
PG03  12463.948353  23077.393163   4352.184915    596.472432
PG04   6369.936071  14938.076178  21010.760953     38.634013
PG05  -3315.405393 -23901.148192  10886.738017   -227.400017
PG06  22125.124338  -5847.360496  13680.480495   -603.136583
PG07  25615.533815   6591.356450   4787.178665   -136.289041
PG08  -2028.782883  21873.352088 -14758.261090    503.411129
PG09  14668.415490   5066.499352  21466.901006    770.334100
PG10 -14032.106833   3663.336913 -21998.618481   -583.043341
PG11   8740.765640 -13453.414169  21213.261107   -471.603319
PG12  -8821.895383 -25052.985121    304.693374   -606.618795
PG13  11078.844138 -21405.767839 -11128.430471    689.460905
PG14  16145.666462   -865.025682 -21030.933389    729.245258
PG15  -1068.743300 -22053.676187 -15262.172136    377.340601
PG16  -2630.639209  22350.541066  13360.614317    189.366630
PG17  20673.450924 -10493.455255 -12812.785776    -34.843657
PG18 -26105.911262  -5224.397123   2132.702676   -449.075985
PG19  20354.251722 -15420.146256  -6326.176947    685.917929
PG21   5637.751669 -19051.106804  17624.837356    381.806284
PG22  13169.183784  -8056.902579 -21307.208129    -57.933162
PG23 -17244.090380 -10778.017101 -17156.698746    600.417406
PG24 -10567.510769 -14878.124361 -19943.871346   -159.957291
PG25 -16617.887770 -17437.181952  11084.338120    449.522890
PG26 -10127.955938  13280.781484  20341.474260   -312.483325
PG27 -11114.179211  23048.432219  -6539.594105    -20.173111
PG28 -22946.896592   6129.649120  11903.922819   -610.202699
PG29 -13056.315505  -7990.323424  21676.481252   -391.734231
PG30  26123.428258   -918.510886  -5272.640456     90.243396
PG31 -14649.368493  11343.636062  18861.968662   -172.217043
PG32 -19680.580976  13080.959321 -11661.051256   -159.776010
PR02 -12808.778581  17393.768974 -13457.195964     12.604321
PR03  -5868.198383  24263.967822   5132.280675    136.985765
PR04   3253.810388  16626.463378  19095.272431    332.520335
PR05  11019.144064    395.811881  23018.391694    162.158279
PR06  12869.776885 -16605.088210  14495.633683     22.887722
PR07   6168.532543 -24333.649098  -4642.294092    117.450052
PR08  -3639.544961 -16437.309842 -19114.287895     -2.499172
PR09  10163.157326  -5653.474219 -22692.592940    302.509054
PR11 -15110.658830 -20112.151169  -4158.046266     11.648266
PR12 -18391.882304 -10719.033053  14077.082244     64.163758
PR14   3775.109305  17472.373375  18211.280071     31.120481
PR15  15516.621880  20006.288824   3162.022765     60.100341
PR16  18313.447357  10757.227392 -14153.711585     44.129095
PR17  -6045.667867  11505.511854 -21944.952292    262.346234
PR18  11353.619349   7966.089841 -21401.712814    242.607152
PR19  23921.768834    445.562648  -8774.207660     29.764198
PR20  22577.220724  -7780.929455   9049.470570    227.927676
PR21   9226.247083 -11384.748016  20874.570209   -272.908339
PR22 -12744.129192  -7960.619377  20637.199250    106.147043
PR24 -21746.656422   9074.649888  -9765.692951   -143.281674
PR26  -2046.797367 -18668.678836 -17228.213309   -460.122200
PR28  22473.524264  -7445.618107   9563.554526   -142.253003
PE02  -1824.048769  27243.980616  11388.714040     10.938510
PE03 -12448.132793  23778.236388  12490.211273      5.882943
PE04  -6250.348927 -16598.521325 -23691.611229    -44.200902
PE05 -23577.607131  16908.259982  -5873.359356      5.715353
PE06 -14904.979539  -8941.160410 -23972.113216   -220.434218
PE07  20900.376835     16.081516  20958.668552    -39.316410
PE08   5856.760395  16704.451326  23723.391737    -74.805546
PE09 -20828.987209     35.288934 -21038.578440   -176.213020
PE10 -24814.123271 -13470.379192   8889.892814   -765.123946
PE11 -28552.702566  -7609.639414  -1568.220679   3625.187757
PE12 -17940.919169 -16692.171976  16590.130076    -19.288189
PE13  28505.294959   7935.985015   1077.984126    -46.606575
PE14   5875.073683  20653.708929 -20444.373617   6394.501235
PE15  17364.833242  16790.246875 -17106.058117   -228.989649
PE18 -19778.453170  -3653.001254  20030.820259   2347.019746
PE19  13551.573966 -23606.466639 -11622.659985   2642.040705
PE21  13809.679296 -12087.103279 -23234.194048   -715.424266
PE23   1641.150077 -27260.354123 -11427.575669    -22.227209
PE25 -14047.721470  11498.643516  23373.051699     21.847270
PE26  22611.183501  -5659.505667  18262.654303    193.441775
PE27  17720.080581  10504.111958 -21258.764792   -881.985514
PE29  23573.929365 -16983.780710   5680.886044   -169.883436
PE30  11422.770543  26301.296986  -7328.705035   -634.798996
PE31 -11112.342542 -26596.338434   6750.968705   -112.820148
PE33   4088.064555 -15510.601832  24888.903485     -1.780003
PE34  -3799.390485  15589.664411 -24867.444988   -230.163578
PE36 -22758.844830   5301.073866 -18148.974173   -510.123773
PC06  -7812.304209  23446.782737  34309.312303     31.738283
PC07 -16737.655553  37855.106482  -8677.467927    463.623947
PC08     14.215688  36619.743129 -20646.887658   -642.667698
PC09   2162.423784  26020.261622  33820.509863    226.198545
PC10  -9755.301622  38284.977243 -15146.064706   -407.986293
PC11  24223.079588   1486.566326 -13722.314924    829.517558
PC12   8786.868865  13335.055673 -22847.151951    194.924781
PC13   4785.048923  39019.981235 -14600.599716   -282.668949
PC14  14658.699960   5528.866319  23103.957687   -307.648846
PC16  -9120.127233  22596.171195  34786.909614   -863.112399
PC19 -15807.909263   5480.019949 -22317.241556   -963.826361
PC20 -11894.241695 -13804.949391 -21117.397069   -954.459264
PC21     93.942532  27107.580077   6705.804020   -890.025366
PC22 -11066.704911  23200.229251 -10901.235680    431.145334
PC23  10662.983251 -12446.692872 -22593.037469   -507.783012
PC24  21241.297753  18033.326330   1240.354948     -5.878469
PC25  22602.732171   2466.333589 -16185.366986    964.902820
PC26   8848.998733  21129.812122  15884.766816   -582.743396
PC27   2256.141937 -17462.001880  21632.897469    582.956291
PC28  17650.210745 -17079.215546  13260.167176    472.294062
PC29 -26312.870219   6030.242184   7061.411116    551.166266
PC30 -17853.202383  -7799.467979  19960.727268    366.386948
PC32   -240.046777 -27106.562469  -6571.846465   -961.891473
PC33  15801.108449  -5434.841862  22348.833637   -951.873392
PC34  17901.531071   7833.274740 -19945.580010    864.458307
PC35 -18288.167469  17376.764423 -11908.418228   -235.001395
PC36 -22660.200068  -3256.094326  15979.621140    305.287276
PC37  -7194.790493 -21161.068166 -16733.577084   -909.236237
PC38  -6168.250621  31733.046592 -26895.264686    269.030475
PC39 -16529.994448  20183.950652  33142.129595    -18.203886
PC40 -23936.971383  33821.450127  -8585.875111   -200.327447
PC41  11581.198441 -22361.868319  12047.745587   -945.355805
PC42  10935.746978  16120.718346  20039.449690   -917.251221
PC43  26382.839031  -7023.476213  -5852.951615    129.820889
PC44  -1491.869325  17699.393340 -21535.010224    899.462375
PC45 -11338.310575  11702.963497  22639.236313   -649.495499
PC47 -24593.821409   -379.759020  13174.030586   -445.030725
PC48 -14808.806076  -6344.981826 -22776.417306    693.036086
PC49  24612.569044 -12600.191256   3821.782729   -610.383304
PJ02 -29813.931088  24521.184771  22247.222160     -0.817873
PJ03 -29711.726747  16373.994917 -20379.412896     -0.332130
PJ04 -21437.587471  35179.295941  -4578.517643     -3.456600
EOF
